[{"OBJECT_NAME":"METOP-C","OBJECT_ID":"2018-087A","EPOCH":"2026-04-01T11:40:13.550016","MEAN_MOTION":14.21504526,"ECCENTRICITY":0.0001872,"INCLINATION":98.6718,"RA_OF_ASC_NODE":152.467,"ARG_OF_PERICENTER":68.6928,"MEAN_ANOMALY":291.4449,"EPHEMERIS_TYPE":0,"CLASSIFICATION_TYPE":"U","NORAD_CAT_ID":43689,"ELEMENT_SET_NO":999,"REV_AT_EPOCH":38393,"BSTAR":8.1317e-5,"MEAN_MOTION_DOT":1.34e-6,"MEAN_MOTION_DDOT":0},{"OBJECT_NAME":"GEO-KOMPSAT-2A","OBJECT_ID":"2018-100A","EPOCH":"2026-04-01T10:05:47.412096","MEAN_MOTION":1.00269638,"ECCENTRICITY":0.0001945,"INCLINATION":0.0524,"RA_OF_ASC_NODE":42.9652,"ARG_OF_PERICENTER":14.5704,"MEAN_ANOMALY":51.9343,"EPHEMERIS_TYPE":0,"CLASSIFICATION_TYPE":"U","NORAD_CAT_ID":43823,"ELEMENT_SET_NO":999,"REV_AT_EPOCH":2686,"BSTAR":0,"MEAN_MOTION_DOT":-3.54e-6,"MEAN_MOTION_DDOT":0},{"OBJECT_NAME":"METEOR-M2 2","OBJECT_ID":"2019-038A","EPOCH":"2026-04-01T11:09:37.312416","MEAN_MOTION":14.2434308,"ECCENTRICITY":4.64e-5,"INCLINATION":98.9107,"RA_OF_ASC_NODE":77.6347,"ARG_OF_PERICENTER":177.9693,"MEAN_ANOMALY":182.1488,"EPHEMERIS_TYPE":0,"CLASSIFICATION_TYPE":"U","NORAD_CAT_ID":44387,"ELEMENT_SET_NO":999,"REV_AT_EPOCH":35037,"BSTAR":9.163e-5,"MEAN_MOTION_DOT":1.66e-6,"MEAN_MOTION_DDOT":0},{"OBJECT_NAME":"ARKTIKA-M 1","OBJECT_ID":"2021-016A","EPOCH":"2026-03-27T05:55:38.244288","MEAN_MOTION":2.00616454,"ECCENTRICITY":0.7253959,"INCLINATION":63.2179,"RA_OF_ASC_NODE":69.3783,"ARG_OF_PERICENTER":269.5617,"MEAN_ANOMALY":15.0995,"EPHEMERIS_TYPE":0,"CLASSIFICATION_TYPE":"U","NORAD_CAT_ID":47719,"ELEMENT_SET_NO":999,"REV_AT_EPOCH":3714,"BSTAR":0,"MEAN_MOTION_DOT":-9.8e-7,"MEAN_MOTION_DDOT":0},{"OBJECT_NAME":"FENGYUN 3E","OBJECT_ID":"2021-062A","EPOCH":"2026-04-01T12:48:12.481056","MEAN_MOTION":14.19897778,"ECCENTRICITY":0.000114,"INCLINATION":98.751,"RA_OF_ASC_NODE":95.7928,"ARG_OF_PERICENTER":354.7899,"MEAN_ANOMALY":5.3265,"EPHEMERIS_TYPE":0,"CLASSIFICATION_TYPE":"U","NORAD_CAT_ID":49008,"ELEMENT_SET_NO":999,"REV_AT_EPOCH":24570,"BSTAR":0.0001027,"MEAN_MOTION_DOT":1.74e-6,"MEAN_MOTION_DDOT":0},{"OBJECT_NAME":"GOES 18","OBJECT_ID":"2022-021A","EPOCH":"2026-04-01T12:19:38.729280","MEAN_MOTION":1.00272806,"ECCENTRICITY":6.12e-5,"INCLINATION":0.0558,"RA_OF_ASC_NODE":41.295,"ARG_OF_PERICENTER":26.8686,"MEAN_ANOMALY":169.6054,"EPHEMERIS_TYPE":0,"CLASSIFICATION_TYPE":"U","NORAD_CAT_ID":51850,"ELEMENT_SET_NO":999,"REV_AT_EPOCH":582,"BSTAR":0,"MEAN_MOTION_DOT":8.7e-7,"MEAN_MOTION_DDOT":0},{"OBJECT_NAME":"NOAA 21 (JPSS-2)","OBJECT_ID":"2022-150A","EPOCH":"2026-04-01T11:43:30.163584","MEAN_MOTION":14.1955816,"ECCENTRICITY":0.0002688,"INCLINATION":98.7581,"RA_OF_ASC_NODE":31.4967,"ARG_OF_PERICENTER":66.8741,"MEAN_ANOMALY":293.2718,"EPHEMERIS_TYPE":0,"CLASSIFICATION_TYPE":"U","NORAD_CAT_ID":54234,"ELEMENT_SET_NO":999,"REV_AT_EPOCH":17566,"BSTAR":6.6364e-5,"MEAN_MOTION_DOT":9.6e-7,"MEAN_MOTION_DDOT":0},{"OBJECT_NAME":"METEOSAT-12 (MTG-I1)","OBJECT_ID":"2022-170C","EPOCH":"2026-04-01T07:46:23.282112","MEAN_MOTION":1.00273796,"ECCENTRICITY":0.0001696,"INCLINATION":0.7359,"RA_OF_ASC_NODE":26.0003,"ARG_OF_PERICENTER":296.2303,"MEAN_ANOMALY":343.7115,"EPHEMERIS_TYPE":0,"CLASSIFICATION_TYPE":"U","NORAD_CAT_ID":54743,"ELEMENT_SET_NO":999,"REV_AT_EPOCH":1220,"BSTAR":0,"MEAN_MOTION_DOT":-1.7e-7,"MEAN_MOTION_DDOT":0},{"OBJECT_NAME":"TIANMU-1 03","OBJECT_ID":"2023-039A","EPOCH":"2026-04-01T11:43:51.887136","MEAN_MOTION":15.45032386,"ECCENTRICITY":0.0003238,"INCLINATION":97.5193,"RA_OF_ASC_NODE":262.5964,"ARG_OF_PERICENTER":37.096,"MEAN_ANOMALY":323.0512,"EPHEMERIS_TYPE":0,"CLASSIFICATION_TYPE":"U","NORAD_CAT_ID":55973,"ELEMENT_SET_NO":999,"REV_AT_EPOCH":16898,"BSTAR":0.00038955,"MEAN_MOTION_DOT":0.00018316,"MEAN_MOTION_DDOT":0},{"OBJECT_NAME":"TIANMU-1 04","OBJECT_ID":"2023-039B","EPOCH":"2026-04-01T12:08:33.196128","MEAN_MOTION":15.45511034,"ECCENTRICITY":0.0003714,"INCLINATION":97.5129,"RA_OF_ASC_NODE":261.7685,"ARG_OF_PERICENTER":28.8377,"MEAN_ANOMALY":331.3076,"EPHEMERIS_TYPE":0,"CLASSIFICATION_TYPE":"U","NORAD_CAT_ID":55974,"ELEMENT_SET_NO":999,"REV_AT_EPOCH":16899,"BSTAR":0.00049545,"MEAN_MOTION_DOT":0.00023721,"MEAN_MOTION_DDOT":0},{"OBJECT_NAME":"TIANMU-1 05","OBJECT_ID":"2023-039C","EPOCH":"2026-04-01T12:44:41.791200","MEAN_MOTION":15.44974659,"ECCENTRICITY":0.0003419,"INCLINATION":97.5175,"RA_OF_ASC_NODE":262.2828,"ARG_OF_PERICENTER":56.4028,"MEAN_ANOMALY":303.7546,"EPHEMERIS_TYPE":0,"CLASSIFICATION_TYPE":"U","NORAD_CAT_ID":55975,"ELEMENT_SET_NO":999,"REV_AT_EPOCH":16897,"BSTAR":0.00038451,"MEAN_MOTION_DOT":0.00018042,"MEAN_MOTION_DDOT":0},{"OBJECT_NAME":"TIANMU-1 06","OBJECT_ID":"2023-039D","EPOCH":"2026-04-01T12:07:49.017216","MEAN_MOTION":15.45491329,"ECCENTRICITY":0.0003616,"INCLINATION":97.5185,"RA_OF_ASC_NODE":262.8178,"ARG_OF_PERICENTER":49.9297,"MEAN_ANOMALY":310.2268,"EPHEMERIS_TYPE":0,"CLASSIFICATION_TYPE":"U","NORAD_CAT_ID":55976,"ELEMENT_SET_NO":999,"REV_AT_EPOCH":16899,"BSTAR":0.00038671,"MEAN_MOTION_DOT":0.0001847,"MEAN_MOTION_DDOT":0},{"OBJECT_NAME":"FENGYUN 3G","OBJECT_ID":"2023-055A","EPOCH":"2026-04-01T08:27:30.475584","MEAN_MOTION":15.53266976,"ECCENTRICITY":0.0004413,"INCLINATION":49.9943,"RA_OF_ASC_NODE":22.2184,"ARG_OF_PERICENTER":29.6602,"MEAN_ANOMALY":330.4615,"EPHEMERIS_TYPE":0,"CLASSIFICATION_TYPE":"U","NORAD_CAT_ID":56232,"ELEMENT_SET_NO":999,"REV_AT_EPOCH":16806,"BSTAR":0.00050679,"MEAN_MOTION_DOT":0.00032231,"MEAN_MOTION_DDOT":0},{"OBJECT_NAME":"METEOR-M2 3","OBJECT_ID":"2023-091A","EPOCH":"2026-04-01T12:17:53.493216","MEAN_MOTION":14.24040011,"ECCENTRICITY":0.0004635,"INCLINATION":98.6165,"RA_OF_ASC_NODE":148.0312,"ARG_OF_PERICENTER":46.7465,"MEAN_ANOMALY":313.41,"EPHEMERIS_TYPE":0,"CLASSIFICATION_TYPE":"U","NORAD_CAT_ID":57166,"ELEMENT_SET_NO":999,"REV_AT_EPOCH":14360,"BSTAR":2.733e-5,"MEAN_MOTION_DOT":2.0e-7,"MEAN_MOTION_DDOT":0},{"OBJECT_NAME":"TIANMU-1 07","OBJECT_ID":"2023-101A","EPOCH":"2026-04-01T11:42:00.837216","MEAN_MOTION":15.29315808,"ECCENTRICITY":0.0004583,"INCLINATION":97.2679,"RA_OF_ASC_NODE":143.9239,"ARG_OF_PERICENTER":87.8828,"MEAN_ANOMALY":272.2937,"EPHEMERIS_TYPE":0,"CLASSIFICATION_TYPE":"U","NORAD_CAT_ID":57399,"ELEMENT_SET_NO":999,"REV_AT_EPOCH":14992,"BSTAR":0.00025765,"MEAN_MOTION_DOT":7.255e-5,"MEAN_MOTION_DDOT":0},{"OBJECT_NAME":"TIANMU-1 08","OBJECT_ID":"2023-101B","EPOCH":"2026-03-31T00:22:56.810784","MEAN_MOTION":15.29380885,"ECCENTRICITY":0.00055928,"INCLINATION":97.2674,"RA_OF_ASC_NODE":142.2648,"ARG_OF_PERICENTER":72.2016,"MEAN_ANOMALY":287.9835,"EPHEMERIS_TYPE":0,"CLASSIFICATION_TYPE":"U","NORAD_CAT_ID":57400,"ELEMENT_SET_NO":999,"REV_AT_EPOCH":14969,"BSTAR":1.5775896e-5,"MEAN_MOTION_DOT":3.77e-6,"MEAN_MOTION_DDOT":0},{"OBJECT_NAME":"TIANMU-1 09","OBJECT_ID":"2023-101C","EPOCH":"2026-04-01T12:06:13.055328","MEAN_MOTION":15.29336113,"ECCENTRICITY":0.0005038,"INCLINATION":97.2626,"RA_OF_ASC_NODE":143.1783,"ARG_OF_PERICENTER":86.2541,"MEAN_ANOMALY":273.9275,"EPHEMERIS_TYPE":0,"CLASSIFICATION_TYPE":"U","NORAD_CAT_ID":57401,"ELEMENT_SET_NO":999,"REV_AT_EPOCH":14992,"BSTAR":0.00028082,"MEAN_MOTION_DOT":7.92e-5,"MEAN_MOTION_DDOT":0}]
