METOP-C                 
1 43689U 18087A   26091.48626794  .00000134  00000+0  81317-4 0  9999
2 43689  98.6718 152.4670 0001872  68.6928 291.4449 14.21504526383932
GEO-KOMPSAT-2A          
1 43823U 18100A   26091.42068764 -.00000354  00000+0  00000+0 0  9996
2 43823   0.0524  42.9652 0001945  14.5704  51.9343  1.00269638 26863
METEOR-M2 2             
1 44387U 19038A   26091.46501519  .00000166  00000+0  91630-4 0  9991
2 44387  98.9107  77.6347 0000464 177.9693 182.1488 14.24343080350371
ARKTIKA-M 1             
1 47719U 21016A   26086.24697042 -.00000098  00000+0  00000+0 0  9990
2 47719  63.2179  69.3783 7253959 269.5617  15.0995  2.00616454 37142
FENGYUN 3E              
1 49008U 21062A   26091.53347779  .00000174  00000+0  10270-3 0  9999
2 49008  98.7510  95.7928 0001140 354.7899   5.3265 14.19897778245704
GOES 18                 
1 51850U 22021A   26091.51364270  .00000087  00000+0  00000+0 0  9995
2 51850   0.0558  41.2950 0000612  26.8686 169.6054  1.00272806  5827
NOAA 21 (JPSS-2)        
1 54234U 22150A   26091.48854356  .00000096  00000+0  66364-4 0  9992
2 54234  98.7581  31.4967 0002688  66.8741 293.2718 14.19558160175661
METEOSAT-12 (MTG-I1)    
1 54743U 22170C   26091.32388058 -.00000017  00000+0  00000+0 0  9997
2 54743   0.7359  26.0003 0001696 296.2303 343.7115  1.00273796 12201
TIANMU-1 03             
1 55973U 23039A   26091.48879499  .00018316  00000+0  38955-3 0  9993
2 55973  97.5193 262.5964 0003238  37.0960 323.0512 15.45032386168985
TIANMU-1 04             
1 55974U 23039B   26091.50593977  .00023721  00000+0  49545-3 0  9994
2 55974  97.5129 261.7685 0003714  28.8377 331.3076 15.45511034168995
TIANMU-1 05             
1 55975U 23039C   26091.53103925  .00018042  00000+0  38451-3 0  9992
2 55975  97.5175 262.2828 0003419  56.4028 303.7546 15.44974659168972
TIANMU-1 06             
1 55976U 23039D   26091.50542844  .00018470  00000+0  38671-3 0  9996
2 55976  97.5185 262.8178 0003616  49.9297 310.2268 15.45491329168997
FENGYUN 3G              
1 56232U 23055A   26091.35243606  .00032231  00000+0  50679-3 0  9990
2 56232  49.9943  22.2184 0004413  29.6602 330.4615 15.53266976168067
METEOR-M2 3             
1 57166U 23091A   26091.51242469  .00000020  00000+0  27330-4 0  9991
2 57166  98.6165 148.0312 0004635  46.7465 313.4100 14.24040011143604
TIANMU-1 07             
1 57399U 23101A   26091.48750969  .00007255  00000+0  25765-3 0  9992
2 57399  97.2679 143.9239 0004583  87.8828 272.2937 15.29315808149926
TIANMU-1 08             
1 57400U 23101B   26090.01593531  .00000377  00000+0  15776-4 0  9993
2 57400  97.2674 142.2648 0005592  72.2016 287.9835 15.29380885149699
TIANMU-1 09             
1 57401U 23101C   26091.50431777  .00007920  00000+0  28082-3 0  9996
2 57401  97.2626 143.1783 0005038  86.2541 273.9275 15.29336113149924
